full_name,a,e,i,om,w,q,ad,per_y,data_arc,condition_code,n_obs_used,n_del_obs_used,n_dop_obs_used,H
"       (2013 AG53)",1.240455452678413,.1753970294745899,5.772094207731717,103.0105551398062,345.4072441657921,1.022883251083062,1.458027654273765,1.38159248086703,12,7,34,,,24.9
"       (2013 CY)",1.113879925917835,.1340522992529144,.7804091161352087,302.5925523459148,149.5919596141881,.9645617607568832,1.263198091078787,1.17561675799992,41,5,86,,,28.3
"       (2013 CW87)",1.211418125053677,.1223357672231951,6.129916848098993,315.7435287011437,171.2345712982018,1.063218359297151,1.359617890810203,1.33336577405435,5,8,11,,,25.6
"       (2013 CL129)",1.106201198263127,.2137898598272917,2.721731853892007,140.7859006793291,290.8765046644787,.8697065991456714,1.342695797380584,1.16348125075974,1,7,22,,,28.4
"       (2013 DA1)",1.168087251444664,.136437010655339,1.888241550050504,142.4492667729033,348.3940831235739,1.008716918672943,1.327457584216385,1.26247017888447,25,7,28,,,27.3
"       (2013 ER4)",1.171677992547806,.2982784300475799,7.433094752212908,336.547794477366,92.004508826299,.8221917204093466,1.521164264686266,1.26829596661691,11,8,21,,,25.0
"       (2013 EC20)",1.111218229718578,.1200727653419839,1.304799479310809,165.8298402638411,33.11278249951058,.9777911839778445,1.244645275459312,1.17140544511661,12,4,64,0,1,29.
"       (2013 EM89)",1.178027063597749,.1166351734515659,2.411130247997688,355.5595618467802,189.9480600995232,1.040627672704387,1.315426454491111,1.27861885411253,37,6,58,,,26.0
"       (2013 GN3)",1.22682709039016,.1848820596325142,3.786449817792026,198.8810168643708,288.2318373338579,1.000008771105863,1.453645409674458,1.3588866695583,1257,3,69,,,23.6
"       (2013 GH66)",1.051128898424203,.04456181674644455,3.446348930161328,198.6186588458447,35.98645687045249,1.004288685075731,1.097969111772674,1.07768581513877,27,3,46,,,28.0
"       (2013 HO11)",1.194492811826331,.2341349078993278,3.718509620552467,59.05128240456331,245.907842229352,.9148203473429637,1.474165276309698,1.30551995121109,267,5,84,,,23.0
"       (2013 HP11)",1.184591756919047,.1253227657685274,4.155849152660408,208.655910213244,9.491440274757053,1.036135441635353,1.333048072202741,1.28932160939955,56,5,88,,,25.4
"       (2013 JM7)",1.211249090899246,.2739975298970642,4.959104903071712,242.4996319351929,154.8230727774036,.8793698319027878,1.543128349895704,1.33308670877237,1483,1,65,,,20.8
"       (2013 JR7)",1.251067616076778,.2227961237257889,9.125716065637205,43.1592121080417,230.4958331570438,.9723346006960083,1.529800631457548,1.39935974340806,1,7,7,,,26.8
"       (2013 LE7)",1.164195120279649,.1057747230002087,1.66720978448645,202.1820436096478,39.52368199087422,1.041052703913874,1.287337536645424,1.25616550763672,1880,0,70,,,27.5
"       (2013 NJ)",1.286072722714281,.2835272931519773,3.940601780779921,238.5971719131641,140.3500786465807,.921436004846507,1.650709440582054,1.45850019941464,1345,0,248,5,4,22.0
"       (2013 NJ4)",1.133253442183642,.2024741723636957,1.319440132077942,115.6024383250258,238.5254254317977,.9037988893991998,1.362707994968084,1.20642067854383,4,6,14,,,27.4
"       (2013 PZ6)",1.169161701875449,.1135066724371204,2.049303657557159,120.9070062619849,219.9084098851623,1.036454047554646,1.301869356196252,1.26421248046657,9,7,19,,,27.8
"       (2013 PA7)",1.153947914460591,.08773048857484442,3.471961315318031,341.3364050639863,93.27797350486804,1.052711500135041,1.255184328786142,1.23961696764321,1984,0,135,,,22.6
"       (2013 PG10)",1.078232821141778,.2266903398902171,.1068704389922148,3.854795421435803,210.7157113046404,.8338078564363605,1.322657785847195,1.11963643700049,9,7,23,,,27.8
"       (2013 PJ10)",1.284779895457284,.2416776935507475,8.265115457998144,312.3331649769237,321.2381250790336,.9742772536027967,1.59528253731177,1.45630151170468,36,6,154,,,24.6
"       (2013 PY38)",1.042571566992762,.2030871545335568,4.222334409738843,146.2386296410853,296.9457647126686,.8308386740546109,1.254304459930914,1.06455233599253,620,3,46,,,24.7
"       (2013 PA39)",1.13743139610677,.1104069684191409,7.736811183120811,143.7132303389018,232.5139544112876,1.011851043877871,1.263011748335669,1.21309837199537,8,7,33,,,26.0
"       (2013 QM10)",1.188922083659361,.1651098814784173,5.568648398104813,333.4815327402871,75.75088616223447,.9926192993392912,1.385224867979431,1.29639782333303,163,4,88,,,24.4
"       (2013 QE11)",1.293003405206482,.2394358720759047,5.856718314075021,335.0909001215725,309.5615148575652,.9834120072837533,1.60259480312921,1.47030591773897,12,7,33,,,26.4
"       (2013 QM48)",1.149438574968826,.2217471192807003,7.421904693502476,330.6923618244282,290.5571644759823,.8945538821793757,1.404323267758277,1.23235790181648,13,7,17,,,27.4
"       (2013 QP48)",1.156537303223204,.2850794092441685,1.507095663919896,150.6672479820275,101.9356916454568,.8268323320514894,1.486242274394919,1.24379174478424,4,7,10,,,27.8
"       (2013 RT9)",1.139785375240606,.0850188665187382,9.018712661215387,161.2629972982184,182.9222583225462,1.042882114563015,1.236688635918197,1.21686618412438,2,6,33,,,26.5
"       (2013 RV9)",1.16729897656939,.2001285632495135,3.510566559418073,332.6746576032521,108.7560672192672,.93368910950593,1.400908843632849,1.26119244178948,2036,0,120,,,23.6
"       (2013 SP19)",1.285039490489947,.2389490687895225,2.326259736115987,.7850874976985746,325.9897363768096,.9779805008796116,1.592098480100282,1.45674291151459,3,7,21,,,29.2
"       (2013 SB20)",1.085754542372627,.08610229750651187,7.103114997409232,181.6361094656142,319.9353351848391,.9922685817462122,1.179240502999041,1.13137267312679,9,7,23,,,24.8
"       (2013 TT5)",1.058190457985963,.09235026286870894,7.342761079845885,11.90984077458591,77.27906792118735,.9604662910257997,1.155914624946126,1.08856399051782,13,6,28,,,26.3
"       (2013 UX2)",1.118784134434517,.1492870072342721,4.1054499424175,211.4376571817283,228.027327304134,.9517641992636025,1.285804069605432,1.1833893343019,1,5,15,,,29.2
"       (2013 UT4)",1.070799985051725,.1220916254686541,5.589046441211372,206.5362536244675,105.6585409285444,.9400642743249495,1.201535695778501,1.10807903218267,5,6,24,,,26.2
"       (2013 UM9)",1.21523554015251,.2463274871759655,2.962846420867265,38.61269452240836,283.9213615122098,.9158896232198153,1.514581457085205,1.33967328052178,1477,0,65,,,24.6
"       (2013 VL)",1.181587946568167,.2889084215510574,7.513726501578597,218.0406102494246,106.2706672419284,.8402172380014029,1.522958655134931,1.284420653369,7,7,22,,,27.7
"       (2013 VM13)",1.202364318397464,.0366638156161899,3.216878009211376,42.91190354292131,70.34931705076545,1.158281054724253,1.246447582070674,1.3184459230238,1532,1,45,,,23.9
"       (2013 WA44)",1.100459701828043,.06047509775114756,2.302204408794018,56.51290815237222,176.7310506584084,1.033909293788793,1.167010109867292,1.15443482048151,92,3,66,,,23.7
"       (2013 XY20)",1.130598985942624,.1064294031901115,2.862686670640609,78.63362556962279,18.18563695099537,1.010270010621406,1.250927961263843,1.20218440431565,94,5,58,,,25.5
"       (2013 XA22)",1.100367244952475,.237343186679361,1.960488003860108,82.63130726604687,258.1335220034417,.8392025765178658,1.361531913387085,1.15428933601562,29,6,32,,,22.8
"       (2013 XS23)",1.061163910766159,.05637439816794582,9.732286779310884,76.75746198276913,54.05241042046754,1.001341433939173,1.120986387593145,1.09315541307644,2,7,12,,,26.3
"       (2013 YR2)",1.24846637037278,.2342571398943473,4.1516241721525,97.49960173172401,66.07072605459744,.9560042091949753,1.540928531550584,1.39499764616456,146,6,29,,,24.2
"       (2014 AA)",1.161570914329746,.210903385513902,1.4109467942359,101.613014674528,52.3157504212017,.916591675983124,1.406550152676368,1.25192062811894,1,9,8,,,30.9
"       (2014 AG5)",1.134774378139175,.03395080883883216,9.351796604840388,101.8930048358606,267.8612348686301,1.096247870151768,1.173300886126583,1.20885019346668,2032,1,46,,,22.5
"       (2014 BT32)",1.121897394665476,.1416857993775593,8.588998726812617,117.7234067721996,267.4122316536229,.9629404654826971,1.280854323848255,1.18833232643848,4,8,12,,,25.0
"       (2014 BP43)",1.118789988322808,.2403054879384308,3.265623436784123,127.0123012637723,87.09786796287528,.8499386142782642,1.387641362367351,1.18339862220358,12,7,27,,,26.5
"       (2014 CH13)",1.138875157095457,.1485742299915037,3.625432362099811,111.0931901300729,115.1830600531645,.9696676575735468,1.308082656617367,1.21540881432819,1,9,16,,,24.4
"       (2014 DQ)",1.198799877824068,.2369304668039669,3.891989116190012,145.0462499549581,296.8394865593026,.9147676631666728,1.482832092481462,1.31258741901256,15,7,36,,,24.7
"       (2014 DD112)",1.264264844829579,.1663893815694889,5.837169038326708,157.6163480009463,302.7968029056332,1.053904599158339,1.474625090500818,1.42156032785184,37,6,33,,,23.7
"       (2014 EU)",1.292649525232105,.2806248135119486,.3305135453217831,186.6093902544189,288.8316257817406,.9298999932775366,1.655399057186673,1.46970235063007,24,6,45,,,27.7
"       (2014 FA7)",1.119621062938366,.2054101075741855,5.988863304234324,180.5014935877105,289.7263662409034,.889639579957872,1.349602545918859,1.18471746915267,4,6,46,,,26.7
"       (2014 FR37)",1.185198795910297,.2705789943468966,6.069448753167282,10.3703245717973,81.33611915454945,.8645088976117364,1.505888694208859,1.29031279739087,56,5,51,,,22.9
"       (2014 FZ43)",1.152459922882292,.2135445425031011,8.301357107000047,17.0196326830036,52.48936509705928,.906358395897234,1.39856144986735,1.23722005071987,6,8,30,,,22.6
"       (2014 FA44)",1.29265737602491,.1889214334765895,.9765021542346773,45.26492947707735,190.6721042728623,1.048446691552197,1.536868060497623,1.46971573981167,83,5,105,,,24.8
"       (2014 FP47)",1.166594815455345,.2597793075617499,5.034958147256248,28.84718176559011,271.6025154107633,.8635376220912279,1.469652008819462,1.26005141183807,1849,0,130,,,22.3
